[{"OBJECT_NAME":"GSAT-7A","OBJECT_ID":"2018-105A","EPOCH":"2026-04-26T12:09:18.135360","MEAN_MOTION":1.00272173,"ECCENTRICITY":0.000225,"INCLINATION":0.0527,"RA_OF_ASC_NODE":59.3403,"ARG_OF_PERICENTER":332.9399,"MEAN_ANOMALY":67.3013,"EPHEMERIS_TYPE":0,"CLASSIFICATION_TYPE":"U","NORAD_CAT_ID":43864,"ELEMENT_SET_NO":999,"REV_AT_EPOCH":2693,"BSTAR":0,"MEAN_MOTION_DOT":1.4e-7,"MEAN_MOTION_DDOT":0},{"OBJECT_NAME":"COSMOS 2533","OBJECT_ID":"2018-107A","EPOCH":"2026-04-25T03:40:33.648672","MEAN_MOTION":1.00272403,"ECCENTRICITY":5.843e-5,"INCLINATION":0.0444,"RA_OF_ASC_NODE":73.6986,"ARG_OF_PERICENTER":348.3583,"MEAN_ANOMALY":276.2465,"EPHEMERIS_TYPE":0,"CLASSIFICATION_TYPE":"U","NORAD_CAT_ID":43867,"ELEMENT_SET_NO":999,"REV_AT_EPOCH":2691,"BSTAR":0,"MEAN_MOTION_DOT":-5.3e-7,"MEAN_MOTION_DDOT":0},{"OBJECT_NAME":"TJS-3","OBJECT_ID":"2018-110A","EPOCH":"2026-04-25T17:02:12.925248","MEAN_MOTION":1.00762434,"ECCENTRICITY":9.34e-5,"INCLINATION":2.4115,"RA_OF_ASC_NODE":81.091,"ARG_OF_PERICENTER":23.7357,"MEAN_ANOMALY":136.1999,"EPHEMERIS_TYPE":0,"CLASSIFICATION_TYPE":"U","NORAD_CAT_ID":43874,"ELEMENT_SET_NO":999,"REV_AT_EPOCH":2689,"BSTAR":0,"MEAN_MOTION_DOT":-2.65e-6,"MEAN_MOTION_DDOT":0},{"OBJECT_NAME":"ZHONGXING-2D","OBJECT_ID":"2019-001A","EPOCH":"2026-04-26T12:51:00.536832","MEAN_MOTION":1.00269432,"ECCENTRICITY":9.13e-5,"INCLINATION":0.0239,"RA_OF_ASC_NODE":323.4003,"ARG_OF_PERICENTER":14.6765,"MEAN_ANOMALY":199.2135,"EPHEMERIS_TYPE":0,"CLASSIFICATION_TYPE":"U","NORAD_CAT_ID":43920,"ELEMENT_SET_NO":999,"REV_AT_EPOCH":5356,"BSTAR":0,"MEAN_MOTION_DOT":-3.49e-6,"MEAN_MOTION_DDOT":0},{"OBJECT_NAME":"HELLAS-SAT 4 & SGS-1","OBJECT_ID":"2019-007A","EPOCH":"2026-04-25T22:51:38.515968","MEAN_MOTION":1.00268862,"ECCENTRICITY":0.00033303,"INCLINATION":0.0724,"RA_OF_ASC_NODE":119.5553,"ARG_OF_PERICENTER":23.5483,"MEAN_ANOMALY":92.7898,"EPHEMERIS_TYPE":0,"CLASSIFICATION_TYPE":"U","NORAD_CAT_ID":44034,"ELEMENT_SET_NO":999,"REV_AT_EPOCH":2684,"BSTAR":0,"MEAN_MOTION_DOT":1.39e-6,"MEAN_MOTION_DDOT":0},{"OBJECT_NAME":"GSAT-31","OBJECT_ID":"2019-007B","EPOCH":"2026-04-26T12:05:03.542208","MEAN_MOTION":1.00270244,"ECCENTRICITY":0.0002998,"INCLINATION":0.0295,"RA_OF_ASC_NODE":253.7249,"ARG_OF_PERICENTER":90.1562,"MEAN_ANOMALY":99.7581,"EPHEMERIS_TYPE":0,"CLASSIFICATION_TYPE":"U","NORAD_CAT_ID":44035,"ELEMENT_SET_NO":999,"REV_AT_EPOCH":2644,"BSTAR":0,"MEAN_MOTION_DOT":1.13e-6,"MEAN_MOTION_DDOT":0},{"OBJECT_NAME":"NUSANTARA SATU","OBJECT_ID":"2019-009A","EPOCH":"2026-04-26T09:07:39.585792","MEAN_MOTION":1.00270109,"ECCENTRICITY":0.000317,"INCLINATION":0.0405,"RA_OF_ASC_NODE":117.0275,"ARG_OF_PERICENTER":339.8191,"MEAN_ANOMALY":40.4566,"EPHEMERIS_TYPE":0,"CLASSIFICATION_TYPE":"U","NORAD_CAT_ID":44048,"ELEMENT_SET_NO":999,"REV_AT_EPOCH":2625,"BSTAR":0,"MEAN_MOTION_DOT":-2.47e-6,"MEAN_MOTION_DDOT":0},{"OBJECT_NAME":"ZHONGXING-6C","OBJECT_ID":"2019-012A","EPOCH":"2026-04-26T12:49:48.637344","MEAN_MOTION":1.00270956,"ECCENTRICITY":0.001187,"INCLINATION":0.0162,"RA_OF_ASC_NODE":66.4581,"ARG_OF_PERICENTER":333.7387,"MEAN_ANOMALY":137.2517,"EPHEMERIS_TYPE":0,"CLASSIFICATION_TYPE":"U","NORAD_CAT_ID":44067,"ELEMENT_SET_NO":999,"REV_AT_EPOCH":2622,"BSTAR":0,"MEAN_MOTION_DOT":0,"MEAN_MOTION_DDOT":0},{"OBJECT_NAME":"WGS 10 (USA 291)","OBJECT_ID":"2019-014A","EPOCH":"2026-04-26T12:08:33.207360","MEAN_MOTION":1.00270382,"ECCENTRICITY":5.05e-5,"INCLINATION":0.0098,"RA_OF_ASC_NODE":246.793,"ARG_OF_PERICENTER":120.8538,"MEAN_ANOMALY":89.2915,"EPHEMERIS_TYPE":0,"CLASSIFICATION_TYPE":"U","NORAD_CAT_ID":44071,"ELEMENT_SET_NO":999,"REV_AT_EPOCH":2610,"BSTAR":0,"MEAN_MOTION_DOT":0,"MEAN_MOTION_DDOT":0},{"OBJECT_NAME":"TIANLIAN 2-01","OBJECT_ID":"2019-017A","EPOCH":"2026-04-26T12:13:17.751072","MEAN_MOTION":1.00272085,"ECCENTRICITY":0.0001504,"INCLINATION":0.4079,"RA_OF_ASC_NODE":82.7084,"ARG_OF_PERICENTER":269.3933,"MEAN_ANOMALY":122.741,"EPHEMERIS_TYPE":0,"CLASSIFICATION_TYPE":"U","NORAD_CAT_ID":44076,"ELEMENT_SET_NO":999,"REV_AT_EPOCH":2613,"BSTAR":0,"MEAN_MOTION_DOT":-1.18e-6,"MEAN_MOTION_DDOT":0},{"OBJECT_NAME":"ARABSAT-6A","OBJECT_ID":"2019-021A","EPOCH":"2026-04-25T22:35:38.624064","MEAN_MOTION":1.00271354,"ECCENTRICITY":0.00021869,"INCLINATION":0.0611,"RA_OF_ASC_NODE":27.5241,"ARG_OF_PERICENTER":19.3628,"MEAN_ANOMALY":176.4203,"EPHEMERIS_TYPE":0,"CLASSIFICATION_TYPE":"U","NORAD_CAT_ID":44186,"ELEMENT_SET_NO":999,"REV_AT_EPOCH":2563,"BSTAR":0,"MEAN_MOTION_DOT":1.4e-6,"MEAN_MOTION_DDOT":0},{"OBJECT_NAME":"BEIDOU-3 IGSO-1","OBJECT_ID":"2019-023A","EPOCH":"2026-04-20T00:53:25.118592","MEAN_MOTION":1.00256582,"ECCENTRICITY":0.00243579,"INCLINATION":58.6186,"RA_OF_ASC_NODE":38.2497,"ARG_OF_PERICENTER":235.9811,"MEAN_ANOMALY":64.3555,"EPHEMERIS_TYPE":0,"CLASSIFICATION_TYPE":"U","NORAD_CAT_ID":44204,"ELEMENT_SET_NO":999,"REV_AT_EPOCH":662,"BSTAR":0,"MEAN_MOTION_DOT":-2.28e-6,"MEAN_MOTION_DDOT":0},{"OBJECT_NAME":"BEIDOU-2 G8","OBJECT_ID":"2019-027A","EPOCH":"2026-04-26T12:32:38.395968","MEAN_MOTION":1.00268277,"ECCENTRICITY":0.001102,"INCLINATION":1.529,"RA_OF_ASC_NODE":74.3674,"ARG_OF_PERICENTER":279.0806,"MEAN_ANOMALY":193.7404,"EPHEMERIS_TYPE":0,"CLASSIFICATION_TYPE":"U","NORAD_CAT_ID":44231,"ELEMENT_SET_NO":999,"REV_AT_EPOCH":2556,"BSTAR":0,"MEAN_MOTION_DOT":-2.59e-6,"MEAN_MOTION_DDOT":0},{"OBJECT_NAME":"YAMAL 601","OBJECT_ID":"2019-031A","EPOCH":"2026-04-26T12:05:18.517920","MEAN_MOTION":1.0027054,"ECCENTRICITY":0.0002743,"INCLINATION":0.0112,"RA_OF_ASC_NODE":235.5224,"ARG_OF_PERICENTER":163.3269,"MEAN_ANOMALY":45.9833,"EPHEMERIS_TYPE":0,"CLASSIFICATION_TYPE":"U","NORAD_CAT_ID":44307,"ELEMENT_SET_NO":999,"REV_AT_EPOCH":2539,"BSTAR":0,"MEAN_MOTION_DOT":0,"MEAN_MOTION_DDOT":0},{"OBJECT_NAME":"AT&T T-16","OBJECT_ID":"2019-034A","EPOCH":"2026-04-26T11:22:37.609824","MEAN_MOTION":1.00270492,"ECCENTRICITY":7.67e-5,"INCLINATION":0.0425,"RA_OF_ASC_NODE":65.9048,"ARG_OF_PERICENTER":151.4926,"MEAN_ANOMALY":66.8803,"EPHEMERIS_TYPE":0,"CLASSIFICATION_TYPE":"U","NORAD_CAT_ID":44333,"ELEMENT_SET_NO":999,"REV_AT_EPOCH":2511,"BSTAR":0,"MEAN_MOTION_DOT":-1.27e-6,"MEAN_MOTION_DDOT":0},{"OBJECT_NAME":"EUTELSAT 7C","OBJECT_ID":"2019-034B","EPOCH":"2026-04-26T07:49:38.586720","MEAN_MOTION":1.00270083,"ECCENTRICITY":0.0003249,"INCLINATION":0.0746,"RA_OF_ASC_NODE":183.4014,"ARG_OF_PERICENTER":194.4359,"MEAN_ANOMALY":320.9026,"EPHEMERIS_TYPE":0,"CLASSIFICATION_TYPE":"U","NORAD_CAT_ID":44334,"ELEMENT_SET_NO":999,"REV_AT_EPOCH":631,"BSTAR":0,"MEAN_MOTION_DOT":3.5e-7,"MEAN_MOTION_DDOT":0},{"OBJECT_NAME":"BEIDOU-3 IGSO-2","OBJECT_ID":"2019-035A","EPOCH":"2026-04-26T12:25:24.089952","MEAN_MOTION":1.00282508,"ECCENTRICITY":0.0039369,"INCLINATION":55.2353,"RA_OF_ASC_NODE":159.3158,"ARG_OF_PERICENTER":215.1492,"MEAN_ANOMALY":145.9118,"EPHEMERIS_TYPE":0,"CLASSIFICATION_TYPE":"U","NORAD_CAT_ID":44337,"ELEMENT_SET_NO":999,"REV_AT_EPOCH":2515,"BSTAR":0,"MEAN_MOTION_DOT":-9.7e-7,"MEAN_MOTION_DDOT":0}]
