GSAT-7A                 
1 43864U 18105A   26116.50645990  .00000014  00000+0  00000+0 0  9997
2 43864   0.0527  59.3403 0002250 332.9399  67.3013  1.00272173 26935
COSMOS 2533             
1 43867U 18107A   26115.15316723 -.00000053  00000+0  00000+0 0  9995
2 43867   0.0444  73.6986 0000584 348.3583 276.2465  1.00272403 26911
TJS-3                   
1 43874U 18110A   26115.70987182 -.00000265  00000+0  00000+0 0  9996
2 43874   2.4115  81.0910 0000934  23.7357 136.1999  1.00762434 26893
ZHONGXING-2D            
1 43920U 19001A   26116.53542288 -.00000349  00000+0  00000+0 0  9997
2 43920   0.0239 323.4003 0000913  14.6765 199.2135  1.00269432 53567
HELLAS-SAT 4 & SGS-1    
1 44034U 19007A   26115.95252912  .00000139  00000+0  00000+0 0  9993
2 44034   0.0724 119.5553 0003330  23.5483  92.7898  1.00268862 26849
GSAT-31                 
1 44035U 19007B   26116.50351322  .00000113  00000+0  00000+0 0  9993
2 44035   0.0295 253.7249 0002998  90.1562  99.7581  1.00270244 26442
NUSANTARA SATU          
1 44048U 19009A   26116.38031928 -.00000247  00000+0  00000+0 0  9991
2 44048   0.0405 117.0275 0003170 339.8191  40.4566  1.00270109 26259
ZHONGXING-6C            
1 44067U 19012A   26116.53459071  .00000000  00000+0  00000+0 0  9992
2 44067   0.0162  66.4581 0011870 333.7387 137.2517  1.00270956 26221
WGS 10 (USA 291)        
1 44071U 19014A   26116.50593990  .00000000  00000+0  00000+0 0  9995
2 44071   0.0098 246.7930 0000505 120.8538  89.2915  1.00270382 26109
TIANLIAN 2-01           
1 44076U 19017A   26116.50923323 -.00000118  00000+0  00000+0 0  9991
2 44076   0.4079  82.7084 0001504 269.3933 122.7410  1.00272085 26131
ARABSAT-6A              
1 44186U 19021A   26115.94141926  .00000140  00000+0  00000+0 0  9990
2 44186   0.0611  27.5241 0002186  19.3628 176.4203  1.00271354 25632
BEIDOU-3 IGSO-1         
1 44204U 19023A   26110.03709628 -.00000228  00000+0  00000+0 0  9995
2 44204  58.6186  38.2497 0024357 235.9811  64.3555  1.00256582  6624
BEIDOU-2 G8             
1 44231U 19027A   26116.52266662 -.00000259  00000+0  00000+0 0  9999
2 44231   1.5290  74.3674 0011020 279.0806 193.7404  1.00268277 25569
YAMAL 601               
1 44307U 19031A   26116.50368655  .00000000  00000+0  00000+0 0  9994
2 44307   0.0112 235.5224 0002743 163.3269  45.9833  1.00270540 25393
AT&T T-16               
1 44333U 19034A   26116.47404641 -.00000127  00000+0  00000+0 0  9999
2 44333   0.0425  65.9048 0000767 151.4926  66.8803  1.00270492 25115
EUTELSAT 7C             
1 44334U 19034B   26116.32614105  .00000035  00000+0  00000+0 0  9999
2 44334   0.0746 183.4014 0003249 194.4359 320.9026  1.00270083  6314
BEIDOU-3 IGSO-2         
1 44337U 19035A   26116.51763993 -.00000097  00000+0  00000+0 0  9993
2 44337  55.2353 159.3158 0039369 215.1492 145.9118  1.00282508 25150
